STARLINK-2406           
1 47821U 21018AL  26068.73492440 -.00002824  00000+0 -83277-4 0  9997
2 47821  53.1598 242.5448 0001115 111.8067 248.3053 15.30194477276737
LYNK TOWER 5            
1 59121U 24043Z   26068.92489786  .00009048  00000+0  31902-3 0  9994
2 59121  97.5458 204.7305 0010406 234.6422 125.3846 15.29454506111860
